     2.12           N: GNSS NAV DATA    E: GALILEO          RINEX VERSION / TYPE
GS10 V12.10                             10-DEC-23 23:59     PGM / RUN BY / DATE
GAL    1.2700D+02 -7.7344D-01  2.2888D-03  0.0000D+00       IONOSPHERIC CORR
GAUT -9.3132257462D-10 8.881784197D-16      0 2292          TIME SYSTEM CORR
GPGA -2.0663719624D-09-2.220446049D-15  86400 2292          TIME SYSTEM CORR
    18    18  1929     7                                    LEAP SECONDS
                                                            END OF HEADER
E19 2023 12 11 11 50 00-1.037375594024D-03 7.659650691494D-11 0.000000000000D+00
     8.700000000000D+01 2.387500000000D+01 3.556219559390D-09-1.128251784513D+00
     1.192092895508D-06 1.440914347768D-04 6.085261702538D-06 5.440604944229D+03
     1.290000000000D+05-3.725290298462D-09 8.444018568867D-01 2.421438694000D-08
     9.653401724415D-01 2.109687500000D+02-3.040123358003D+00-5.526301621216D-09
     6.039537285256D-10 5.170000000000D+02 2.292000000000D+03 0.000000000000D+00
     3.120000000000D+00 0.000000000000D+00-3.259629011154D-09-3.026798367500D-09
     1.296640000000D+05
E27 2023 12 11 11 50 00-2.214674605057D-04-9.293898983742D-12 0.000000000000D+00
     8.700000000000D+01 1.530312500000D+02 2.594036623466D-09 1.453523659700D+00
     7.169321179390D-06 2.996016992256D-04 1.188553869724D-05 5.440628602982D+03
     1.290000000000D+05-1.117587089539D-08 2.939130856678D+00-6.146728992462D-08
     9.679564858558D-01 9.318750000000D+01 4.473945809230D-02-5.140928426018D-09
    -3.632294156774D-10 5.170000000000D+02 2.292000000000D+03 0.000000000000D+00
     3.120000000000D+00 0.000000000000D+00 1.862645149231D-09 2.095475792885D-09
     1.296640000000D+05
E36 2023 12 11 11 50 00-1.561803510413D-04-5.215383680479D-12 0.000000000000D+00
     8.700000000000D+01-1.625625000000D+02 2.614751772050D-09 3.063108921433D+00
    -7.659196853638D-06 2.750427229330D-04-2.048909664154D-08 5.440603397369D+03
     1.290000000000D+05 8.195638656616D-08-1.253527845278D+00-2.793967723846D-08
     9.997424860760D-01 3.565937500000D+02-1.280920219743D+00-5.654164090058D-09
    -2.610823036973D-10 2.580000000000D+02 2.292000000000D+03 0.000000000000D+00
     3.120000000000D+00 0.000000000000D+00 5.355104804039D-09 0.000000000000D+00
     1.297000000000D+05
E21 2023 12 11 11 50 00-5.683322669938D-04-1.875832822407D-12 0.000000000000D+00
     8.700000000000D+01 1.616875000000D+02 2.629038081417D-09 2.419710493055D-01
     7.532536983490D-06 1.844024518505D-04 1.149810850620D-05 5.440627618790D+03
     1.290000000000D+05-2.607703208923D-08 2.939150635330D+00 3.352761268616D-08
     9.679841437850D-01 9.740625000000D+01 4.600708143561D-01-5.152357473513D-09
    -3.189418566371D-10 2.580000000000D+02 2.292000000000D+03 0.000000000000D+00
     3.120000000000D+00 0.000000000000D+00 2.561137080193D-09 0.000000000000D+00
     1.297000000000D+05
E27 2023 12 11 11 50 00-2.214670530520D-04-9.308109838457D-12 0.000000000000D+00
     8.700000000000D+01 1.530312500000D+02 2.594036623466D-09 1.453523659700D+00
     7.169321179390D-06 2.996016992256D-04 1.188553869724D-05 5.440628602982D+03
     1.290000000000D+05-1.117587089539D-08 2.939130856678D+00-6.146728992462D-08
     9.679564858558D-01 9.318750000000D+01 4.473945809230D-02-5.140928426018D-09
    -3.632294156774D-10 2.580000000000D+02 2.292000000000D+03 0.000000000000D+00
     3.120000000000D+00 0.000000000000D+00 1.862645149231D-09 0.000000000000D+00
     1.297000000000D+05
E19 2023 12 11 11 50 00-1.037375186570D-03 7.659650691494D-11 0.000000000000D+00
     8.700000000000D+01 2.387500000000D+01 3.556219559390D-09-1.128251784513D+00
     1.192092895508D-06 1.440914347768D-04 6.085261702538D-06 5.440604944229D+03
     1.290000000000D+05-3.725290298462D-09 8.444018568867D-01 2.421438694000D-08
     9.653401724415D-01 2.109687500000D+02-3.040123358003D+00-5.526301621216D-09
     6.039537285256D-10 2.580000000000D+02 2.292000000000D+03 0.000000000000D+00
     3.120000000000D+00 0.000000000000D+00-3.259629011154D-09 0.000000000000D+00
     1.297000000000D+05
E11 2023 12 11 11 50 00 3.260493976995D-03 1.666933258093D-11-3.469446951954D-18
     8.700000000000D+01-1.798437500000D+02 2.616537560721D-09 2.137203715868D+00
    -8.307397365570D-06 1.770593225956D-04-1.583248376846D-07 5.440608184814D+03
     1.290000000000D+05 4.656612873077D-08-1.252057521907D+00 5.774199962616D-08
     9.966312762530D-01 3.610625000000D+02 3.957056241219D-01-5.734881737987D-09
    -2.757257707994D-10 2.580000000000D+02 2.292000000000D+03 0.000000000000D+00
     3.120000000000D+00 0.000000000000D+00-1.350417733192D-08 0.000000000000D+00
     1.297000000000D+05
E21 2023 12 11 12 00 00-5.683335475624D-04-1.861621967691D-12 0.000000000000D+00
     8.800000000000D+01 1.606875000000D+02 2.637967024772D-09 3.175763599415D-01
     7.491558790207D-06 1.842195633799D-04 1.141242682934D-05 5.440627044678D+03
     1.296000000000D+05-3.166496753693D-08 2.939147566128D+00 2.793967723846D-08
     9.679839784752D-01 9.950000000000D+01 4.588497444308D-01-5.150928842576D-09
    -3.239420649158D-10 5.170000000000D+02 2.292000000000D+03 0.000000000000D+00
     3.120000000000D+00 0.000000000000D+00 2.561137080193D-09 2.793967723846D-09
     1.302640000000D+05
E19 2023 12 11 12 00 00-1.037329784594D-03 7.659650691494D-11 0.000000000000D+00
     8.800000000000D+01 2.418750000000D+01 3.555148086188D-09-1.054055455629D+00
     1.214444637299D-06 1.440399792045D-04 6.105750799179D-06 5.440604827881D+03
     1.296000000000D+05-3.725290298462D-09 8.443985345997D-01 2.421438694000D-08
     9.653405381711D-01 2.106562500000D+02-3.039933749191D+00-5.525230148013D-09
     6.039537285256D-10 5.170000000000D+02 2.292000000000D+03 0.000000000000D+00
     3.120000000000D+00 0.000000000000D+00-3.259629011154D-09-3.026798367500D-09
     1.302640000000D+05
E21 2023 12 11 12 00 00-5.683332565241D-04-1.875832822407D-12 0.000000000000D+00
     8.800000000000D+01 1.606875000000D+02 2.637967024772D-09 3.175763599415D-01
     7.491558790207D-06 1.842195633799D-04 1.141242682934D-05 5.440627044678D+03
     1.296000000000D+05-3.166496753693D-08 2.939147566128D+00 2.793967723846D-08
     9.679839784752D-01 9.950000000000D+01 4.588497444308D-01-5.150928842576D-09
    -3.239420649158D-10 2.580000000000D+02 2.292000000000D+03 0.000000000000D+00
     3.120000000000D+00 0.000000000000D+00 2.561137080193D-09 0.000000000000D+00
     1.303000000000D+05
E19 2023 12 11 12 00 00-1.037329318933D-03 7.659650691494D-11 0.000000000000D+00
     8.800000000000D+01 2.418750000000D+01 3.555148086188D-09-1.054055455629D+00
     1.214444637299D-06 1.440399792045D-04 6.105750799179D-06 5.440604827881D+03
     1.296000000000D+05-3.725290298462D-09 8.443985345997D-01 2.421438694000D-08
     9.653405381711D-01 2.106562500000D+02-3.039933749191D+00-5.525230148013D-09
     6.039537285256D-10 2.580000000000D+02 2.292000000000D+03 0.000000000000D+00
     3.120000000000D+00 0.000000000000D+00-3.259629011154D-09 0.000000000000D+00
     1.303000000000D+05
E21 2023 12 11 12 10 00-5.683345953003D-04-1.847411112976D-12 0.000000000000D+00
     8.900000000000D+01 1.602187500000D+02 2.645110179456D-09 3.929095707407D-01
     7.474794983864D-06 1.841007033363D-04 1.134909689426D-05 5.440626626968D+03
     1.302000000000D+05-3.539025783539D-08 2.939144499852D+00 2.048909664154D-08
     9.679838087767D-01 1.011562500000D+02 4.579008606545D-01-5.150214527108D-09
    -3.285851154604D-10 5.170000000000D+02 2.292000000000D+03 0.000000000000D+00
     3.120000000000D+00 0.000000000000D+00 2.561137080193D-09 2.793967723846D-09
     1.308640000000D+05
E19 2023 12 11 12 10 00-1.037283858750D-03 7.659650691494D-11 0.000000000000D+00
     8.900000000000D+01 2.443750000000D+01 3.553719455251D-09-9.798115394835D-01
     1.231208443642D-06 1.439924817532D-04 6.129965186119D-06 5.440604724884D+03
     1.302000000000D+05-1.862645149231D-09 8.443952167015D-01 2.421438694000D-08
     9.653409009747D-01 2.103125000000D+02-3.039791720327D+00-5.525230148013D-09
     6.043108862598D-10 5.170000000000D+02 2.292000000000D+03 0.000000000000D+00
     3.120000000000D+00 0.000000000000D+00-3.259629011154D-09-3.026798367500D-09
     1.308640000000D+05
E21 2023 12 11 12 10 00-5.683343042620D-04-1.861621967691D-12 0.000000000000D+00
     8.900000000000D+01 1.602187500000D+02 2.645110179456D-09 3.929095707407D-01
     7.474794983864D-06 1.841007033363D-04 1.134909689426D-05 5.440626626968D+03
     1.302000000000D+05-3.539025783539D-08 2.939144499852D+00 2.048909664154D-08
     9.679838087767D-01 1.011562500000D+02 4.579008606545D-01-5.150214527108D-09
    -3.285851154604D-10 2.580000000000D+02 2.292000000000D+03 0.000000000000D+00
     3.120000000000D+00 0.000000000000D+00 2.561137080193D-09 0.000000000000D+00
     1.309000000000D+05
E19 2023 12 11 12 10 00-1.037283451296D-03 7.661071776965D-11 0.000000000000D+00
     8.900000000000D+01 2.443750000000D+01 3.553719455251D-09-9.798115394835D-01
     1.231208443642D-06 1.439924817532D-04 6.129965186119D-06 5.440604724884D+03
     1.302000000000D+05-1.862645149231D-09 8.443952167015D-01 2.421438694000D-08
     9.653409009747D-01 2.103125000000D+02-3.039791720327D+00-5.525230148013D-09
     6.043108862598D-10 2.580000000000D+02 2.292000000000D+03 0.000000000000D+00
     3.120000000000D+00 0.000000000000D+00-3.259629011154D-09 0.000000000000D+00
     1.309000000000D+05
